STARLINK-37799          
1 69317U 26119X   26157.83335647 -.01245186  00000+0 -55324-2 0  9994
2 69317  97.2837 183.1062 0001314  84.8071  21.4629 15.86746297  2339
STARLINK-37802          
1 69318U 26119Y   26157.83335647 -.02432207  00000+0 -10238-1 0  9992
2 69318  97.2842 183.1092 0001788  75.4415  36.3289 15.88937025  2387
STARLINK-37803          
1 69319U 26119Z   26157.83335647 -.02411836  00000+0 -10069-1 0  9990
2 69319  97.2843 183.1104 0001762  86.0160  28.4530 15.89065782  2339
GUOWANG TEST OBJECT A   
1 69320U 26120A   26157.09855477  .00012167  00000+0  32226-3 0  9991
2 69320  54.9973  77.6770 0009486 290.5105  69.4905 15.38777591   985
GUOWANG TEST OBJECT B   
1 69321U 26120B   26155.27875762  .00027005  00000+0  69390-3 0  9998
2 69321  55.0006  85.8667 0009100 296.4175  63.5919 15.39121370   705
GUOWANG TEST OBJECT C   
1 69322U 26120C   26157.48544250  .00024073  00000+0  61196-3 0  9997
2 69322  54.9971  75.9132 0009929 306.7989  53.2128 15.39507724  1046
GUOWANG TEST OBJECT D   
1 69323U 26120D   26155.66644343  .00032137  00000+0  80800-3 0  9993
2 69323  55.0029  84.1123 0008002 301.7889  58.2360 15.39704502   764
QIANFAN-163             
1 69325U 26121A   26157.63237313  .00000031  00000+0  24513-4 0  9998
2 69325  89.0163 301.5834 0019084 218.2148 141.7657 13.60350929   724
QIANFAN-164             
1 69326U 26121B   26157.63178367  .00000133  00000+0  16046-3 0  9996
2 69326  89.0161 301.5829 0018448 219.6890 140.2917 13.60504179   720
SZ-22 MODULE            
1 69328U 25272C   26157.35658609  .00026540  00000+0  32428-3 0  9997
2 69328  41.4811  27.9298 0008030 359.5995   0.4836 15.59786263  1635
